#dP2024  7 15 18  0  0.00000000      96 __u+U IGS20 EXT  IAC
## 2323 151200.00000000   900.00000000 60506 0.7500000000000
+   54   G02G03G04G05G06G07G08G09G10G11G12G13G14G15G16G17G18
+        G19G20G21G22G23G24G25G26G27G28G29G30G31G32R01R02R03
+        R04R05R07R08R09R11R12R13R14R15R16R17R18R19R20R21R22
+        R24R25R26  0  0  0  0  0  0  0  0  0  0  0  0  0  0
+          0  0  0  0  0  0  0  0  0  0  0  0  0  0  0  0  0
++         7  7  7  8  8  8  8  8  7  8  7  7  9  7  8  9  6
++         8  8  7  7  7  8  9  9  8  8  8  8  7  8 10  9  8
++         8  9  9  8  8  8  8  8  9  8  8  8  8  9  8  9  8
++         7  8  9  0  0  0  0  0  0  0  0  0  0  0  0  0  0
++         0  0  0  0  0  0  0  0  0  0  0  0  0  0  0  0  0
%c M  cc GPS ccc cccc cccc cccc cccc ccccc ccccc ccccc ccccc
%c cc cc ccc ccc cccc cccc cccc cccc ccccc ccccc ccccc ccccc
%f  0.0000000  0.000000000  0.00000000000  0.000000000000000
%f  0.0000000  0.000000000  0.00000000000  0.000000000000000
%i    0    0    0    0      0      0      0      0         0
%i    0    0    0    0      0      0      0      0         0
/* IAC                                ULTRA-RAPID PREDICTION
/* S/V CLOCKS ARE ALIGNED TO GNSS TIME                      
/* G:C1WC2W R:C1PC2P E:C1XC5X C:C2IC6I J:C1CC2S             
/* PCV:IGS20_2317 OL/AL:FES2004  NONE     YN ORB:CoN CLK:CoN
*  2024 07 15 19  0  0.00000000
PG02 -12853.379550  21392.601480  -8148.852690   -398.420450
PG03  -2039.339953  14819.383213 -22119.149001    459.410969
PG04  -1821.446327  25066.515421  -8358.330913    404.418293
PG05  18253.888251  -7304.058819  17711.870464   -179.853366
PG06  18555.535488    611.165457 -18975.481119    159.591458
PG07   4232.378717  16248.611227  21006.423505    -69.363791
PG08  -8369.099624  18071.044074  17249.059018    275.662184
PG09   7611.296238  25256.530107   2751.240825    274.470191
PG10 -24203.894830 -10843.912230   3609.719446    -67.003697
PG11  22776.934318 -10709.681269  -8365.477034   -705.363331
PG12   5951.903707 -14116.491921 -21975.494229   -522.521957
PG13  13412.592485  -9911.354805  20397.632781    664.753908
PG14  22097.154503  13344.252835   6765.466044    449.547436
PG15   5948.556832 -19362.644492  16578.464361    181.457779
PG16 -21452.370356   2309.130944  15443.411282   -235.815203
PG17  12862.829225  17098.692923 -15212.244172    676.858906
PG18  -4009.937167 -15444.668605  21206.949484   -636.837457
PG19  14943.292660   8573.057221 -20491.711731    510.891507
PG20  24501.591205  -3147.230780   9614.233161    372.729252
PG21 -16165.913795  20061.084191  -3035.934951    108.720988
PG22  24346.229563  10112.584444   -960.379122    -39.950970
PG23 -16635.812138 -15190.419061  14258.139165    274.517830
PG24  13207.653114 -21776.753360  -7163.939242   -483.237022
PG25  -6409.138886 -16958.505696 -19831.817605    498.539797
PG26 -26216.177932  -3915.488690   3526.789852    119.350764
PG27 -13789.235761   6793.117689  21326.423853    -31.187048
PG28 -17433.461635  -2711.542773 -19863.634868   -332.568432
PG29  -3033.887888 -26316.064296   -168.757277   -589.371041
PG30  14104.991708   8337.900475  21090.064141   -357.252074
PG31 -22553.703677   7135.418298 -12679.396901   -226.738303
PG32 -14675.436709 -14879.238493 -16294.910817   -611.991009
PR01 -13160.018802 -21685.163422   2619.547918     91.468990
PR02 -16244.866370 -13968.246601 -13852.712092    -23.722679
PR03 -11088.085476   2448.586485 -22801.643462    103.824765
PR04     80.542179  16858.289938 -19110.632976    245.412750
PR05  11026.318926  22403.438777  -5149.108199    134.589308
PR07  10673.511927  -3239.417913  22974.982860     86.712628
PR08   -293.467764 -17090.503642  19005.458188     -5.950503
PR09  23366.711552   3133.992857   9870.839543    197.866033
PR11  12700.093201 -10065.747306 -19690.952350     18.101218
PR12  -8731.652938 -10028.338559 -21739.164048     42.487697
PR13 -21886.395541  -4604.456922 -12272.682884    -49.381459
PR14 -23934.332526   4916.040757   7301.466120     26.708133
PR15 -11062.216350  10419.196889  20509.463764     77.839328
PR16   8560.579725   9912.249858  21912.406864     27.388306
PR17 -15200.204044  14397.249441  14610.137938    104.888822
PR18 -11781.422119  22575.772507  -1033.451318    152.110358
PR19  -4097.906160  20237.497315 -14989.898310   -283.981024
PR20   9836.701023   3741.426332 -23233.292434   -116.207089
PR21  15246.161558 -13886.626668 -14993.439867   -117.790230
PR22  11774.102610 -22520.395575   2274.139558     87.833077
PR24 -10689.493416  -2990.628497  22979.360718    -63.874527
PR25  15903.799105 -13905.085604 -14275.332413    -96.614883
PR26    611.816496 -16141.633423  19751.897164      4.485410
*  2024 07 15 19 15  0.00000000
PG02 -13605.689195  21842.442130  -5407.027129   -398.413840
PG03  -4423.950528  14083.753080 -22241.699265    459.425760
PG04  -2256.168776  24021.110918 -10934.169561    404.425270
PG05  20107.391081  -6686.181338  15879.628678   -179.854586
PG06  16938.997528   2178.026344 -20311.255108    159.570918
PG07   2507.071628  17708.204186  20015.740474    -69.356916
PG08  -9083.893572  16088.591515  18809.669330    275.676797
PG09   7395.773180  25478.654974    -99.358795    274.483750
PG10 -23639.081573 -10832.598692   6418.430421    -67.012462
PG11  22074.472958  -9824.136183 -10938.310239   -705.369467
PG12   8228.464444 -13227.329937 -21786.773342   -522.524746
PG13  13697.636493  -7498.334794  21233.484299    664.756133
PG14  21146.563378  13304.289997   9372.470448    449.555457
PG15   6918.360075 -17497.282998  18169.105793    181.461630
PG16 -22948.694825   1520.797810  13328.240275   -235.805612
PG17  12947.733876  18793.515964 -13030.186047    676.851979
PG18  -2194.392679 -16972.184436  20265.740140   -636.841064
PG19  15139.054401  10795.697505 -19287.142918    510.896337
PG20  25410.288567  -2774.258388   6980.871988    372.728848
PG21 -16571.557326  20011.158409   -124.516607    108.718755
PG22  24232.128275  10366.601487   1912.330600    -39.955037
PG23 -14927.781621 -14856.820060  16333.196551    274.525858
PG24  13880.969206 -22018.676985  -4445.904772   -483.238461
PG25  -4215.408936 -16420.896753 -20840.070139    498.540135
PG26 -26404.468970  -4274.659664    767.823419    119.344536
PG27 -14415.838272   4351.781420  21582.778441    -31.187867
PG28 -15846.569154  -4417.361971 -20862.150995   -332.582726
PG29  -2774.041767 -26174.772258  -3044.415664   -589.369313
PG30  12364.638669  10002.701470  21433.939828   -357.246199
PG31 -21533.998062   5979.014360 -14862.992500   -226.738041
PG32 -14926.409954 -16646.014198 -14275.986128   -611.989219
PR01 -12972.860914 -21180.220683   5778.917741     91.469988
PR02 -17226.659163 -15174.422039 -11146.931366    -23.722866
PR03 -12686.058731    171.966191 -22094.568428    103.825197
PR04  -1213.694225  14756.028195 -20740.334676    245.413978
PR05  10711.963541  21617.777701  -8239.949664    134.589758
PR07  12266.797324   -948.603373  22375.550153     86.713166
PR08   1002.789120 -15028.298756  20654.366247     -5.950873
PR09  21984.529188   3200.442526  12635.901140    197.867897
PR11  15002.152498 -10351.598009 -17839.480721     18.100126
PR12  -5997.926753 -10217.027335 -22559.928643     42.488065
PR13 -20211.543286  -4655.544723 -14855.408607    -49.381921
PR14 -24629.309099   5089.593609   4205.798972     26.708119
PR15 -13472.692042  10679.593573  18864.989558     77.838946
PR16   5818.473907  10107.508108  22705.798536     27.388573
PR17 -14217.755783  12709.093704  16970.698969    104.891800
PR18 -11568.281794  22603.316775   2207.303152    152.111961
PR19  -4746.816544  21807.766079 -12366.899160   -283.982218
PR20   8460.396951   6262.761369 -23229.759734   -116.207633
PR21  14226.158796 -12164.455277 -17315.766015   -117.793111
PR22  11679.792915 -22661.156766   -936.931781     87.827193
PR24  -9440.766664  -5538.616313  23051.433295    -63.875883
PR25  14904.372895 -12274.045682 -16653.096420    -96.616683
PR26   1983.039777 -14018.648294  21230.615512      4.487192
EOF
